{
    "links": {
        "self": "http://www.neowsapp.com/rest/v1/neo/54016427?api_key=iIulBulltgU6a56xZRHN4H3l9WmuAYTsLGpBGhQ2"
    },
    "id": "54016427",
    "neo_reference_id": "54016427",
    "name": "(2020 FY6)",
    "designation": "2020 FY6",
    "nasa_jpl_url": "http://ssd.jpl.nasa.gov/sbdb.cgi?sstr=54016427",
    "absolute_magnitude_h": 25.142,
    "estimated_diameter": {
        "kilometers": {
            "estimated_diameter_min": 0.0248974562,
            "estimated_diameter_max": 0.0556724045
        },
        "meters": {
            "estimated_diameter_min": 24.897456176,
            "estimated_diameter_max": 55.6724044763
        },
        "miles": {
            "estimated_diameter_min": 0.0154705572,
            "estimated_diameter_max": 0.0345932176
        },
        "feet": {
            "estimated_diameter_min": 81.6845701204,
            "estimated_diameter_max": 182.652251502
        }
    },
    "is_potentially_hazardous_asteroid": false,
    "close_approach_data": [
        {
            "close_approach_date": "2011-10-22",
            "close_approach_date_full": "2011-Oct-22 00:22",
            "epoch_date_close_approach": 1319242920000,
            "relative_velocity": {
                "kilometers_per_second": "16.3882581242",
                "kilometers_per_hour": "58997.7292472201",
                "miles_per_hour": "36658.8945980852"
            },
            "miss_distance": {
                "astronomical": "0.49772576",
                "lunar": "193.61532064",
                "kilometers": "74458713.5401312",
                "miles": "46266499.18776256"
            },
            "orbiting_body": "Earth"
        },
        {
            "close_approach_date": "2020-04-04",
            "close_approach_date_full": "2020-Apr-04 10:28",
            "epoch_date_close_approach": 1585996080000,
            "relative_velocity": {
                "kilometers_per_second": "4.4743537327",
                "kilometers_per_hour": "16107.673437693",
                "miles_per_hour": "10008.6818646599"
            },
            "miss_distance": {
                "astronomical": "0.1383928924",
                "lunar": "53.8348351436",
                "kilometers": "20703281.926179188",
                "miles": "12864422.8577132744"
            },
            "orbiting_body": "Earth"
        },
        {
            "close_approach_date": "2020-10-08",
            "close_approach_date_full": "2020-Oct-08 23:00",
            "epoch_date_close_approach": 1602198000000,
            "relative_velocity": {
                "kilometers_per_second": "7.6813113791",
                "kilometers_per_hour": "27652.7209645804",
                "miles_per_hour": "17182.3254237972"
            },
            "miss_distance": {
                "astronomical": "0.1830566298",
                "lunar": "71.2090289922",
                "kilometers": "27384881.907458526",
                "miles": "17016176.5667026188"
            },
            "orbiting_body": "Earth"
        },
        {
            "close_approach_date": "2058-04-03",
            "close_approach_date_full": "2058-Apr-03 04:27",
            "epoch_date_close_approach": 2785033620000,
            "relative_velocity": {
                "kilometers_per_second": "4.4712291808",
                "kilometers_per_hour": "16096.4250508167",
                "miles_per_hour": "10001.6925544922"
            },
            "miss_distance": {
                "astronomical": "0.1368448925",
                "lunar": "53.2326631825",
                "kilometers": "20471704.438378975",
                "miles": "12720527.279320855"
            },
            "orbiting_body": "Earth"
        },
        {
            "close_approach_date": "2058-10-09",
            "close_approach_date_full": "2058-Oct-09 11:22",
            "epoch_date_close_approach": 2801388120000,
            "relative_velocity": {
                "kilometers_per_second": "7.7174803624",
                "kilometers_per_hour": "27782.9293046608",
                "miles_per_hour": "17263.2318226655"
            },
            "miss_distance": {
                "astronomical": "0.1849377227",
                "lunar": "71.9407741303",
                "kilometers": "27666289.398570649",
                "miles": "17191035.0733829962"
            },
            "orbiting_body": "Earth"
        }
    ],
    "orbital_data": {
        "orbit_id": "4",
        "orbit_determination_date": "2020-04-04 06:26:06",
        "first_observation_date": "2020-03-28",
        "last_observation_date": "2020-04-03",
        "data_arc_in_days": 6,
        "observations_used": 24,
        "orbit_uncertainty": "8",
        "minimum_orbit_intersection": ".0126603",
        "jupiter_tisserand_invariant": "5.730",
        "epoch_osculation": "2458941.5",
        "eccentricity": ".06426656261298952",
        "semi_major_axis": "1.077496670336691",
        "inclination": "7.204987002646464",
        "ascending_node_longitude": "8.30798739580314",
        "orbital_period": "408.528474245009",
        "perihelion_distance": "1.00824966310721",
        "perihelion_argument": "334.8270410786332",
        "aphelion_distance": "1.146743677566171",
        "perihelion_time": "2459109.218418547678",
        "mean_anomaly": "212.204596537002",
        "mean_motion": ".8812115255009011",
        "equinox": "J2000",
        "orbit_class": {
            "orbit_class_type": "APO",
            "orbit_class_description": "Near-Earth asteroid orbits which cross the Earth’s orbit similar to that of 1862 Apollo",
            "orbit_class_range": "a (semi-major axis) > 1.0 AU; q (perihelion) < 1.017 AU"
        }
    },
    "is_sentry_object": false
}